{
  "norad_id": 66330,
  "name": "STARLINK-35512",
  "history": [
    {
      "epoch": "2026-04-15T10:41:47.806080Z",
      "apogee_km": 484.2877318363644,
      "perigee_km": 481.782031865112,
      "latitude_deg": 4.215478074325145e-05,
      "longitude_deg": 1.0643024340814395,
      "height_km": 482.9295895553625,
      "semi_major_axis_km": 6861.171881850738,
      "eccentricity": 0.0001826,
      "inclination_deg": 43.006,
      "raan_deg": 5.1211,
      "arg_perigee_deg": 264.6404,
      "mean_anomaly_deg": 95.424,
      "mean_motion_rev_day": 15.27584747
    },
    {
      "epoch": "2026-04-16T10:14:07.864224Z",
      "apogee_km": 485.9789969274061,
      "perigee_km": 480.0698902457316,
      "latitude_deg": 2.4024271106427678e-05,
      "longitude_deg": 1.4726009358709238,
      "height_km": 483.48363047880605,
      "semi_major_axis_km": 6861.161443586569,
      "eccentricity": 0.00043062,
      "inclination_deg": 43.0102,
      "raan_deg": 359.5797,
      "arg_perigee_deg": 256.7005,
      "mean_anomaly_deg": 103.3367,
      "mean_motion_rev_day": 15.27588233
    },
    {
      "epoch": "2026-04-18T09:18:50.812704Z",
      "apogee_km": 483.88101818017185,
      "perigee_km": 482.18191842068245,
      "latitude_deg": -3.557228419584295e-05,
      "longitude_deg": 2.2860383663820047,
      "height_km": 482.93938105870063,
      "semi_major_axis_km": 6861.168468300427,
      "eccentricity": 0.00012382,
      "inclination_deg": 43.0058,
      "raan_deg": 348.5056,
      "arg_perigee_deg": 261.1482,
      "mean_anomaly_deg": 98.9229,
      "mean_motion_rev_day": 15.27585887
    },
    {
      "epoch": "2026-04-19T01:00:24.287328Z",
      "apogee_km": 483.75934073145254,
      "perigee_km": 482.234385119079,
      "latitude_deg": -2.2437432926607045e-05,
      "longitude_deg": 122.55960122205099,
      "height_km": 482.7610666776467,
      "semi_major_axis_km": 6861.133862925265,
      "eccentricity": 0.00011113,
      "inclination_deg": 43.0035,
      "raan_deg": 344.8131,
      "arg_perigee_deg": 270.9503,
      "mean_anomaly_deg": 89.1221,
      "mean_motion_rev_day": 15.27597444
    },
    {
      "epoch": "2026-04-20T08:23:32.516160Z",
      "apogee_km": 484.09735426249426,
      "perigee_km": 482.060533697364,
      "latitude_deg": -3.429002871347609e-05,
      "longitude_deg": 3.0958382339774966,
      "height_km": 483.29761162510704,
      "semi_major_axis_km": 6861.215943979929,
      "eccentricity": 0.00014843,
      "inclination_deg": 43.0071,
      "raan_deg": 337.4226,
      "arg_perigee_deg": 244.3224,
      "mean_anomaly_deg": 115.7474,
      "mean_motion_rev_day": 15.27570032
    },
    {
      "epoch": "2026-04-21T00:05:06.194688Z",
      "apogee_km": 484.1288116255555,
      "perigee_km": 481.8795923167254,
      "latitude_deg": 1.2559998612459086e-05,
      "longitude_deg": 123.36988372154296,
      "height_km": 483.1585415790893,
      "semi_major_axis_km": 6861.141201971141,
      "eccentricity": 0.00016391,
      "inclination_deg": 43.0073,
      "raan_deg": 333.7314,
      "arg_perigee_deg": 250.4265,
      "mean_anomaly_deg": 109.641,
      "mean_motion_rev_day": 15.27594993
    }
  ]
}